[
  {"name":"White Rice (cooked)","nameHi":"चावल","category":"rice","region":"pan-india","servingSize":150,"servingUnit":"g","calories":195,"protein":4,"carbs":45,"fat":0.4,"fiber":0.6,"sugar":0,"sodium":1,"isVeg":true,"tags":["staple","lunch","dinner"]},
  {"name":"Roti (Chapati)","nameHi":"रोटी","category":"bread","region":"north","servingSize":40,"servingUnit":"g","calories":104,"protein":3,"carbs":18,"fat":3,"fiber":2,"sugar":0.4,"sodium":120,"isVeg":true,"tags":["staple","bread","wheat"]},
  {"name":"Paratha (plain)","nameHi":"पराठा","category":"bread","region":"north","servingSize":80,"servingUnit":"g","calories":260,"protein":5,"carbs":36,"fat":10,"fiber":2,"sugar":1,"sodium":200,"isVeg":true,"tags":["bread","breakfast"]},
  {"name":"Naan","nameHi":"नान","category":"bread","region":"north","servingSize":90,"servingUnit":"g","calories":262,"protein":9,"carbs":45,"fat":5,"fiber":2,"sugar":3,"sodium":418,"isVeg":true,"tags":["bread","tandoor"]},
  {"name":"Dosa (plain)","nameHi":"डोसा","category":"bread","region":"south","servingSize":100,"servingUnit":"g","calories":168,"protein":4,"carbs":28,"fat":4,"fiber":1,"sugar":1,"sodium":180,"isVeg":true,"tags":["breakfast","fermented","south-indian"]},
  {"name":"Idli","nameHi":"इडली","category":"bread","region":"south","servingSize":60,"servingUnit":"g","calories":78,"protein":2,"carbs":16,"fat":0.4,"fiber":0.6,"sugar":0,"sodium":130,"isVeg":true,"tags":["breakfast","fermented","steamed"]},
  {"name":"Poha","nameHi":"पोहा","category":"rice","region":"west","servingSize":200,"servingUnit":"g","calories":250,"protein":5,"carbs":45,"fat":6,"fiber":2,"sugar":2,"sodium":300,"isVeg":true,"tags":["breakfast","flattened-rice"]},
  {"name":"Upma","nameHi":"उपमा","category":"grain","region":"south","servingSize":200,"servingUnit":"g","calories":220,"protein":6,"carbs":34,"fat":7,"fiber":3,"sugar":1,"sodium":350,"isVeg":true,"tags":["breakfast","semolina"]},
  {"name":"Dal Tadka","nameHi":"दाल तड़का","category":"dal","region":"north","servingSize":200,"servingUnit":"g","calories":180,"protein":10,"carbs":24,"fat":5,"fiber":6,"sugar":2,"sodium":400,"isVeg":true,"tags":["lentil","protein","staple"]},
  {"name":"Rajma","nameHi":"राजमा","category":"dal","region":"north","servingSize":200,"servingUnit":"g","calories":210,"protein":12,"carbs":32,"fat":4,"fiber":8,"sugar":2,"sodium":450,"isVeg":true,"tags":["kidney-beans","protein","punjabi"]},
  {"name":"Chole (Chana Masala)","nameHi":"छोले","category":"dal","region":"north","servingSize":200,"servingUnit":"g","calories":240,"protein":12,"carbs":34,"fat":6,"fiber":8,"sugar":4,"sodium":500,"isVeg":true,"tags":["chickpea","protein","punjabi"]},
  {"name":"Sambar","nameHi":"सांभर","category":"dal","region":"south","servingSize":200,"servingUnit":"g","calories":130,"protein":6,"carbs":18,"fat":3,"fiber":4,"sugar":3,"sodium":380,"isVeg":true,"tags":["lentil","south-indian","tamarind"]},
  {"name":"Palak Paneer","nameHi":"पालक पनीर","category":"curry","region":"north","servingSize":200,"servingUnit":"g","calories":260,"protein":14,"carbs":12,"fat":18,"fiber":4,"sugar":3,"sodium":420,"isVeg":true,"tags":["spinach","paneer","protein"]},
  {"name":"Paneer Butter Masala","nameHi":"पनीर बटर मसाला","category":"curry","region":"north","servingSize":200,"servingUnit":"g","calories":340,"protein":14,"carbs":16,"fat":24,"fiber":2,"sugar":6,"sodium":520,"isVeg":true,"tags":["paneer","rich","creamy"]},
  {"name":"Aloo Gobi","nameHi":"आलू गोभी","category":"vegetable","region":"north","servingSize":200,"servingUnit":"g","calories":160,"protein":4,"carbs":24,"fat":6,"fiber":4,"sugar":4,"sodium":350,"isVeg":true,"tags":["potato","cauliflower","dry"]},
  {"name":"Bhindi Masala","nameHi":"भिंडी मसाला","category":"vegetable","region":"north","servingSize":150,"servingUnit":"g","calories":120,"protein":3,"carbs":14,"fat":6,"fiber":4,"sugar":2,"sodium":280,"isVeg":true,"tags":["okra","dry"]},
  {"name":"Baingan Bharta","nameHi":"बैंगन भर्ता","category":"vegetable","region":"north","servingSize":200,"servingUnit":"g","calories":140,"protein":4,"carbs":16,"fat":7,"fiber":5,"sugar":4,"sodium":320,"isVeg":true,"tags":["eggplant","smoky"]},
  {"name":"Chicken Curry","nameHi":"चिकन करी","category":"curry","region":"pan-india","servingSize":200,"servingUnit":"g","calories":280,"protein":24,"carbs":10,"fat":16,"fiber":2,"sugar":3,"sodium":480,"isVeg":false,"tags":["chicken","protein","non-veg"]},
  {"name":"Butter Chicken","nameHi":"बटर चिकन","category":"curry","region":"north","servingSize":200,"servingUnit":"g","calories":360,"protein":22,"carbs":14,"fat":24,"fiber":2,"sugar":6,"sodium":560,"isVeg":false,"tags":["chicken","creamy","rich"]},
  {"name":"Egg Bhurji","nameHi":"अंडा भुर्जी","category":"curry","region":"pan-india","servingSize":150,"servingUnit":"g","calories":220,"protein":14,"carbs":4,"fat":16,"fiber":1,"sugar":2,"sodium":380,"isVeg":false,"tags":["egg","scrambled","protein"]},
  {"name":"Fish Curry","nameHi":"मछली करी","category":"curry","region":"bengali","servingSize":200,"servingUnit":"g","calories":200,"protein":20,"carbs":8,"fat":10,"fiber":1,"sugar":2,"sodium":420,"isVeg":false,"tags":["fish","protein","bengali"]},
  {"name":"Biryani (Chicken)","nameHi":"चिकन बिरयानी","category":"rice","region":"south","servingSize":300,"servingUnit":"g","calories":420,"protein":22,"carbs":52,"fat":14,"fiber":2,"sugar":2,"sodium":580,"isVeg":false,"tags":["rice","chicken","hyderabadi"]},
  {"name":"Veg Biryani","nameHi":"वेज बिरयानी","category":"rice","region":"south","servingSize":300,"servingUnit":"g","calories":350,"protein":8,"carbs":56,"fat":10,"fiber":4,"sugar":3,"sodium":500,"isVeg":true,"tags":["rice","mixed-veg"]},
  {"name":"Curd (Dahi)","nameHi":"दही","category":"dairy","region":"pan-india","servingSize":100,"servingUnit":"g","calories":60,"protein":3.5,"carbs":5,"fat":3,"fiber":0,"sugar":5,"sodium":40,"isVeg":true,"tags":["yogurt","probiotic","calcium"]},
  {"name":"Lassi (Sweet)","nameHi":"लस्सी","category":"beverage","region":"north","servingSize":250,"servingUnit":"ml","calories":180,"protein":6,"carbs":28,"fat":5,"fiber":0,"sugar":24,"sodium":60,"isVeg":true,"tags":["yogurt","drink","punjabi"]},
  {"name":"Chaas (Buttermilk)","nameHi":"छाछ","category":"beverage","region":"pan-india","servingSize":250,"servingUnit":"ml","calories":40,"protein":2,"carbs":5,"fat":1,"fiber":0,"sugar":4,"sodium":200,"isVeg":true,"tags":["yogurt","drink","digestive"]},
  {"name":"Masala Chai","nameHi":"मसाला चाय","category":"beverage","region":"pan-india","servingSize":150,"servingUnit":"ml","calories":70,"protein":2,"carbs":10,"fat":2,"fiber":0,"sugar":8,"sodium":30,"isVeg":true,"tags":["tea","milk","spiced"]},
  {"name":"Samosa","nameHi":"समोसा","category":"snack","region":"north","servingSize":80,"servingUnit":"g","calories":260,"protein":4,"carbs":28,"fat":14,"fiber":2,"sugar":1,"sodium":320,"isVeg":true,"tags":["fried","street-food","potato"]},
  {"name":"Vada Pav","nameHi":"वड़ा पाव","category":"snack","region":"west","servingSize":150,"servingUnit":"g","calories":310,"protein":6,"carbs":42,"fat":13,"fiber":3,"sugar":3,"sodium":400,"isVeg":true,"tags":["street-food","mumbai","fried"]},
  {"name":"Pav Bhaji","nameHi":"पाव भाजी","category":"snack","region":"west","servingSize":300,"servingUnit":"g","calories":400,"protein":10,"carbs":52,"fat":18,"fiber":6,"sugar":6,"sodium":600,"isVeg":true,"tags":["street-food","mumbai","butter"]},
  {"name":"Pakora (Mixed Veg)","nameHi":"पकौड़ा","category":"snack","region":"pan-india","servingSize":100,"servingUnit":"g","calories":280,"protein":6,"carbs":24,"fat":18,"fiber":3,"sugar":2,"sodium":350,"isVeg":true,"tags":["fried","snack","rainy-day"]},
  {"name":"Gulab Jamun","nameHi":"गुलाब जामुन","category":"sweet","region":"north","servingSize":60,"servingUnit":"g","calories":175,"protein":2,"carbs":28,"fat":6,"fiber":0,"sugar":22,"sodium":30,"isVeg":true,"tags":["dessert","fried","syrup"]},
  {"name":"Rasgulla","nameHi":"रसगुल्ला","category":"sweet","region":"bengali","servingSize":60,"servingUnit":"g","calories":130,"protein":3,"carbs":26,"fat":1,"fiber":0,"sugar":22,"sodium":20,"isVeg":true,"tags":["dessert","bengali","chenna"]},
  {"name":"Jalebi","nameHi":"जलेबी","category":"sweet","region":"north","servingSize":50,"servingUnit":"g","calories":190,"protein":1,"carbs":30,"fat":8,"fiber":0,"sugar":26,"sodium":10,"isVeg":true,"tags":["dessert","fried","syrup","breakfast"]},
  {"name":"Kheer","nameHi":"खीर","category":"sweet","region":"pan-india","servingSize":150,"servingUnit":"g","calories":200,"protein":5,"carbs":30,"fat":7,"fiber":0,"sugar":22,"sodium":50,"isVeg":true,"tags":["dessert","rice","milk"]},
  {"name":"Paneer Tikka","nameHi":"पनीर टिक्का","category":"snack","region":"north","servingSize":150,"servingUnit":"g","calories":250,"protein":16,"carbs":8,"fat":18,"fiber":2,"sugar":3,"sodium":380,"isVeg":true,"tags":["tandoor","protein","appetizer"]},
  {"name":"Tandoori Chicken","nameHi":"तंदूरी चिकन","category":"meat","region":"north","servingSize":200,"servingUnit":"g","calories":260,"protein":30,"carbs":6,"fat":12,"fiber":1,"sugar":2,"sodium":500,"isVeg":false,"tags":["tandoor","protein","grilled"]},
  {"name":"Dal Makhani","nameHi":"दाल मखनी","category":"dal","region":"north","servingSize":200,"servingUnit":"g","calories":240,"protein":10,"carbs":26,"fat":10,"fiber":6,"sugar":3,"sodium":450,"isVeg":true,"tags":["lentil","creamy","rich","butter"]},
  {"name":"Rasam","nameHi":"रसम","category":"dal","region":"south","servingSize":200,"servingUnit":"g","calories":60,"protein":2,"carbs":10,"fat":1,"fiber":1,"sugar":2,"sodium":350,"isVeg":true,"tags":["soup","tamarind","pepper","south-indian"]},
  {"name":"Coconut Chutney","nameHi":"नारियल चटनी","category":"chutney","region":"south","servingSize":30,"servingUnit":"g","calories":50,"protein":1,"carbs":3,"fat":4,"fiber":1,"sugar":1,"sodium":100,"isVeg":true,"tags":["condiment","south-indian","coconut"]},
  {"name":"Mango Pickle","nameHi":"आम का अचार","category":"chutney","region":"pan-india","servingSize":15,"servingUnit":"g","calories":30,"protein":0,"carbs":2,"fat":2,"fiber":0.5,"sugar":1,"sodium":450,"isVeg":true,"tags":["condiment","pickle","spicy"]},
  {"name":"Banana","nameHi":"केला","category":"fruit","region":"pan-india","servingSize":120,"servingUnit":"g","calories":108,"protein":1.3,"carbs":27,"fat":0.4,"fiber":3,"sugar":14,"sodium":1,"isVeg":true,"tags":["fruit","potassium","snack"]},
  {"name":"Mango","nameHi":"आम","category":"fruit","region":"pan-india","servingSize":150,"servingUnit":"g","calories":100,"protein":1,"carbs":25,"fat":0.4,"fiber":2.5,"sugar":22,"sodium":2,"isVeg":true,"tags":["fruit","summer","vitamin-c"]},
  {"name":"Papaya","nameHi":"पपीता","category":"fruit","region":"pan-india","servingSize":150,"servingUnit":"g","calories":60,"protein":1,"carbs":15,"fat":0.2,"fiber":2.5,"sugar":11,"sodium":5,"isVeg":true,"tags":["fruit","digestive","vitamin-a"]},
  {"name":"Paneer (raw)","nameHi":"पनीर","category":"dairy","region":"north","servingSize":100,"servingUnit":"g","calories":265,"protein":18,"carbs":4,"fat":20,"fiber":0,"sugar":2,"sodium":25,"isVeg":true,"tags":["cottage-cheese","protein","calcium"]},
  {"name":"Milk (full fat)","nameHi":"दूध","category":"dairy","region":"pan-india","servingSize":250,"servingUnit":"ml","calories":160,"protein":8,"carbs":12,"fat":8,"fiber":0,"sugar":12,"sodium":100,"isVeg":true,"tags":["calcium","protein","drink"]},
  {"name":"Ghee","nameHi":"घी","category":"dairy","region":"pan-india","servingSize":10,"servingUnit":"g","calories":90,"protein":0,"carbs":0,"fat":10,"fiber":0,"sugar":0,"sodium":0,"isVeg":true,"tags":["fat","clarified-butter","cooking"]},
  {"name":"Puri","nameHi":"पूरी","category":"bread","region":"north","servingSize":30,"servingUnit":"g","calories":120,"protein":2,"carbs":14,"fat":6,"fiber":1,"sugar":0,"sodium":150,"isVeg":true,"tags":["fried","bread","wheat"]},
  {"name":"Khichdi","nameHi":"खिचड़ी","category":"rice","region":"pan-india","servingSize":250,"servingUnit":"g","calories":220,"protein":8,"carbs":38,"fat":4,"fiber":3,"sugar":1,"sodium":300,"isVeg":true,"tags":["comfort-food","rice","lentil","easy-digest"]},
  {"name":"Pani Puri","nameHi":"पानी पूरी","category":"snack","region":"pan-india","servingSize":120,"servingUnit":"g","calories":180,"protein":3,"carbs":30,"fat":6,"fiber":2,"sugar":4,"sodium":500,"isVeg":true,"tags":["street-food","chaat","spicy"]}
]